ASTERIA                 
1 43020U 98067NH  18291.92407955  .00009574  00000-0  11261-3 0  9990
2 43020  51.6410 111.5308 0002011 271.7588  88.3175 15.62173299 51811
DELLINGR (RBLE)         
1 43021U 98067NJ  18292.47763798  .00006588  00000-0  88704-4 0  9991
2 43021  51.6385 112.1783 0001889 259.3834 100.6946 15.59201816 51856
OSIRIS-3U               
1 43027U 98067NL  18292.49418234  .00045506  00000-0  32845-3 0  9998
2 43027  51.6346  97.9550 0003750 258.6213 101.4365 15.73043160 51927
AEROCUBE 7B             
1 43042U 17071F   18292.51785078  .00002624  00000-0  75522-4 0  9991
2 43042  51.6382 155.4886 0004796   5.4668 354.6368 15.39624937 48750
AEROCUBE 7C             
1 43043U 17071G   18292.51777312  .00002675  00000-0  76794-4 0  9992
2 43043  51.6386 155.4957 0004934   6.8377 353.2674 15.39629167 48722
CHEFSAT                 
1 43044U 17071H   18291.85211893  .00005350  00000-0  13714-3 0  9991
2 43044  51.6386 157.0966 0004720   4.5233 355.5794 15.41032258 48641
ASGARDIA 1              
1 43049U 17071N   18292.16404587  .00003348  00000-0  93224-4 0  9995
2 43049  51.6385 156.8948 0002717  32.7477 327.3676 15.39743191 48669
ISARA                   
1 43050U 17071P   18292.51889293  .00003927  00000-0  10413-3 0  9998
2 43050  51.6381 154.0344 0002495  33.3907 326.7235 15.40772096 48735
FAUNA                   
1 43052U 17071R   18291.88065889  .00002581  00000-0  73765-4 0  9991
2 43052  51.6385 158.0149 0002579  28.6806 331.4320 15.39917792 48624
CORVUS BC3              
1 43118U 18004H   18292.17464154  .00000862  00000-0  40314-4 0  9996
2 43118  97.5199 354.9288 0011266  29.5026 330.6844 15.22450903 42575
MICROMAS-2A             
1 43131U 18004W   18291.94954696  .00002069  00000-0  90340-4 0  9995
2 43131  97.5213 354.9513 0010444  33.5994 326.5903 15.23236891 42551
GOMX4-B                 
1 43196U 18015E   18290.81870132  .00002344  00000-0  10000-3 0  9995
2 43196  97.3622  57.3603 0020034  86.9025 274.2570 15.23729608 39201
GOMX4-A                 
1 43197U 18015F   18292.33981925  .00000644  00000-0  29544-4 0  9993
2 43197  97.3627  58.8546 0020994  81.6482   1.6726 15.23799151 39444
1KUNS-PF                
1 43466U 98067NP  18292.44047992  .00011745  00000-0  15752-3 0  9995
2 43466  51.6386 116.4200 0000758 184.0063 176.0924 15.58429014 25050
UBAKUSAT                
1 43467U 98067NQ  18292.34365666  .00007943  00000-0  11198-3 0  9991
2 43467  51.6386 117.2766 0002566 222.0913 137.9882 15.57620211 25042
BATSU-CS1 (IRAZU)       
1 43468U 98067NR  18292.47355974  .00013814  00000-0  17972-3 0  9997
2 43468  51.6385 115.8916 0000921 176.0696 184.0304 15.59072079125051
CUBERRT                 
1 43546U 98067NU  18291.90592683  .00010164  00000-0  14728-3 0  9992
2 43546  51.6387 121.0926 0005304 296.2396  63.8050 15.56506598 15080
TEMPEST-D               
1 43547U 98067NV  18291.86346236  .00007455  00000-0  11384-3 0  9993
2 43547  51.6383 121.5573 0005335 299.7979  60.2482 15.55532706 14751
RAINCUBE                
1 43548U 98067NW  18291.98182854  .00009331  00000-0  13777-3 0  9994
2 43548  51.6383 120.8481 0005269 306.5018  53.5488 15.56109344 15222
HALOSAT                 
1 43549U 98067NX  18291.78957923  .00008516  00000-0  12640-3 0  9992
2 43549  51.6384 121.8146 0005277 307.9998  52.0516 15.56099397 14753
ENDUROSAT ONE           
1 43551U 98067NZ  18291.83120242  .00009685  00000-0  14017-3 0  9995
2 43551  51.6381 121.3423 0005710 314.7200  45.3326 15.56603264 15175
EQUISAT                 
1 43552U 98067PA  18292.47867673  .00008526  00000-0  12519-3 0  9991
2 43552  51.6383 118.1679 0006010 318.1389  41.9143 15.56389803 15231
AEROCUBE 12A            
1 43556U 18046C   18291.79665482  .00002140  00000-0  90184-4 0  9993
2 43556  51.6416 141.0847 0007931 282.3566  77.6525 15.27922589 14417
AEROCUBE 12B            
1 43557U 18046D   18291.79737079  .00001903  00000-0  81698-4 0  9992
2 43557  51.6415 141.0890 0007951 282.3271  77.6818 15.27887736 14363
UITMSAT-1               
1 43589U 98067PD  18292.51694710  .00009484  00000-0  14057-3 0  9999
2 43589  51.6379 118.4200 0005360 328.1351  31.9316 15.55980241 10975
MAYA-1                  
1 43590U 98067PE  18291.93766096  .00010101  00000-0  14915-3 0  9994
2 43590  51.6381 121.3018 0005427 326.8809  33.1842 15.55996834 10813
BHUTAN-1                
1 43591U 98067PF  18291.93595710  .00010168  00000-0  14987-3 0  9990
2 43591  51.6381 121.2903 0005491 328.2869  31.7791 15.56037284 10812
SIRIUSSAT-1             
1 43595U 98067PG  18291.82772995  .00009497  00000-0  14285-3 0  9998
2 43595  51.6382 122.0629 0003189 269.3887  90.6739 15.55578258  9979
SIRIUSSAT-2             
1 43596U 98067PH  18291.83346973  .00009149  00000-0  13861-3 0  9996
2 43596  51.6392 122.1077 0003809 274.4251  85.6305 15.55429465  9978
TANUSHA-3               
1 43597U 98067PJ  18291.82926561  .00011093  00000-0  16515-3 0  9993
2 43597  51.6371 122.0679 0003171 287.2109  72.8535 15.55659867  9973
SURFSAT                 
1 43614U 18070B   18291.93568148  .00003153  00000-0  88835-4 0  9997
2 43614  93.0272 263.3223 0017057 151.3061 208.9133 15.36354279  5120
CP-7 (DAVE)             
1 43615U 18070C   18292.19601562  .00002920  00000-0  82291-4 0  9996
2 43615  93.0269 263.4301 0016816 150.0935 210.1279 15.36361178  5169
ELFIN-B                 
1 43616U 18070D   18292.39001597 -.00000006  00000-0  00000+0 0  9998
2 43616  93.0273 263.4882 0016884 151.7621 208.4933 15.36430766  5194
ELFIN-A                 
1 43617U 18070E   18292.38945716 -.00000006  00000-0  00000+0 0  9998
2 43617  93.0314 263.5264 0016649 148.0942 212.1698 15.36467565  5197
